OPS 7218 (TRANSIT 16)   
1 02807U 67048A   25107.76931781  .00000196  00000+0  28794-3 0  9997
2 02807  89.6803   1.8302 0022246  86.8048 341.8786 13.50660793850502
OPS 4947 (TRANSIT 17)   
1 02965U 67092A   25107.86645499  .00000222  00000+0  31148-3 0  9997
2 02965  89.2447  42.7018 0046349 207.6566 213.2766 13.53389864838666
OPS 7034 (TRANSIT 18)   
1 03133U 68012A   25107.95772848  .00000204  00000+0  29268-3 0  9997
2 03133  90.0196 273.0718 0075380 141.2398 333.8089 13.51503860536938
NNSS 19 (TRANSIT 19)    
1 04507U 70067A   25107.89369115  .00000262  00000+0  35836-3 0  9990
2 04507  89.9897 234.6007 0170135 264.9423  93.2290 13.51237905689966
NNSS 20 (TRANSIT 20)    
1 06909U 73081A   25107.94887315  .00000335  00000+0  32968-3 0  9994
2 06909  89.8422 258.8379 0156826  74.6069 287.2358 13.71326897770883
TRANSAT                 
1 10457U 77106A   25107.93317486  .00000119  00000+0  17303-3 0  9991
2 10457  89.6432  87.1294 0026079 158.1432 255.3036 13.48902093335240
NOVA 1                  
1 12458U 81044A   25107.93110520  .00000089  00000+0  18886-3 0  9993
2 12458  89.8516  94.7829 0015597  47.6169 329.3481 13.23241085120550
NOVA 3                  
1 15362U 84110A   25107.92369771  .00000078  00000+0  16562-3 0  9997
2 15362  90.1170  77.8111 0029741 267.7860 146.1520 13.23011114955411
OSCAR 30                
1 15935U 85066A   25107.97721655  .00000172  00000+0  29251-3 0  9996
2 15935  90.1668  95.9299 0169153  37.9840 332.0979 13.36027631932654
OSCAR 24                
1 15936U 85066B   25107.94547736  .00000158  00000+0  26826-3 0  9999
2 15936  90.1777  88.1137 0170345  44.3630   8.9732 13.35887654934774
POLAR BEAR              
1 17070U 86088A   25107.82757944  .00000178  00000+0  17265-3 0  9995
2 17070  89.6193 193.3120 0041331 120.1806 359.3252 13.75195420926959
OSCAR 27                
1 18361U 87080A   25107.94371736  .00000156  00000+0  24422-3 0  9995
2 18361  90.3686  70.4473 0103456 187.4839 172.4770 13.44852356843472
OSCAR 29                
1 18362U 87080B   25107.94810742  .00000132  00000+0  20600-3 0  9999
2 18362  90.3696  70.8852 0104347 210.1887 212.8013 13.44402309843014
OSCAR 23                
1 19070U 88033A   25107.79104605  .00000145  00000+0  27196-3 0  9993
2 19070  90.3226   8.9700 0190892 124.6194 305.0903 13.27745586790825
OSCAR 32                
1 19071U 88033B   25107.79871549  .00000145  00000+0  27050-3 0  9991
2 19071  90.3232   9.0904 0189567 111.7498 321.1458 13.27913333790946
NOVA 2                  
1 19223U 88052A   25107.90188821  .00000065  00000+0  13425-3 0  9990
2 19223  89.9813  78.6613 0029077 314.5274  72.6030 13.22906168777905
OSCAR 25                
1 19419U 88074A   25107.81424378  .00000156  00000+0  25283-3 0  9997
2 19419  90.0338  19.4772 0094909 207.0659 217.2427 13.42573843794341
OSCAR 31                
1 19420U 88074B   25107.83302135  .00000145  00000+0  23426-3 0  9992
2 19420  90.0354  19.7893 0093330 201.1011 227.8470 13.42541785794459
